{
  "norad_id": 68478,
  "name": "TRANSPORTER-16 OBJECT BQ",
  "history": [
    {
      "epoch": "2026-04-13T22:03:56.257632Z",
      "apogee_km": 593.8194680487059,
      "perigee_km": 589.4416176596887,
      "latitude_deg": -1.1582744256958031e-05,
      "longitude_deg": -109.89207706558841,
      "height_km": 595.5821364918877,
      "semi_major_axis_km": 6969.767542854197,
      "eccentricity": 0.00031406,
      "inclination_deg": 97.7549,
      "raan_deg": 63.1956,
      "arg_perigee_deg": 114.6812,
      "mean_anomaly_deg": 245.4734,
      "mean_motion_rev_day": 14.92022325
    }
  ]
}