TRANSPORTER-16 OBJECT BQ
1 68478U 26067BQ  26103.91940113  .00000166  00000+0  21841-4 0  9996
2 68478  97.7549  63.1956 0003140 114.6812 245.4734 14.92022325  2143
